OBJECT_NAME,OBJECT_ID,EPOCH,MEAN_MOTION,ECCENTRICITY,INCLINATION,RA_OF_ASC_NODE,ARG_OF_PERICENTER,MEAN_ANOMALY,EPHEMERIS_TYPE,CLASSIFICATION_TYPE,NORAD_CAT_ID,ELEMENT_SET_NO,REV_AT_EPOCH,BSTAR,MEAN_MOTION_DOT,MEAN_MOTION_DDOT
ONEWEB-0635,2023-043AG,2026-06-16T23:48:29.956032,13.15550660,.0001952,87.9010,259.2305,93.0240,267.1114,0,U,56076,999,15640,-.11546E-4,.8E-7,0
ONEWEB-0636,2023-043AH,2026-06-16T23:37:06.917376,13.15550062,.0002006,87.9008,259.2384,94.8704,265.2656,0,U,56077,999,15638,-.1751E-3,-.53E-6,0
ONEWEB-0637,2023-043AJ,2026-06-16T23:27:59.740128,13.15549012,.0002274,87.9002,259.2562,96.1913,263.9476,0,U,56078,999,15640,-.44669E-3,-.155E-5,0
ONEWEB-0647,2023-043AK,2026-06-16T23:21:09.336672,13.15548541,.0001827,87.9003,259.2697,97.9518,262.1820,0,U,56079,999,15639,-.2994E-3,-.1E-5,0
ONEWEB-0651,2023-043AL,2026-06-17T04:42:52.337376,13.15549341,.0002089,87.9002,259.2187,94.1427,265.9942,0,U,56080,999,15762,.40452E-4,.28E-6,0
ONEWEB-0718,2023-043AM,2026-06-16T17:38:52.118016,13.15546397,.0002385,87.9002,259.2912,109.6141,250.5246,0,U,56081,999,15637,-.18784E-3,-.58E-6,0
ONEWEB-0561,2023-068A,2026-06-17T01:06:28.789056,13.20772767,.000172,87.9195,274.4712,91.3056,268.8274,0,U,56710,999,14948,-.43306E-4,-.5E-7,0
ONEWEB-0668,2023-068B,2026-06-16T21:31:35.973696,13.16594227,.0002612,87.9096,228.8300,99.0975,261.0451,0,U,56711,999,15174,-.30362E-4,.1E-7,0
ONEWEB-0676,2023-068C,2026-06-16T21:42:59.027904,13.16593353,.0002025,87.9098,228.8346,88.7234,271.4128,0,U,56712,999,15166,.75985E-4,.42E-6,0
ONEWEB-0677,2023-068D,2026-06-16T17:33:08.139744,13.20770041,.0002258,87.9195,274.5255,92.2187,267.9204,0,U,56713,999,14974,.14731E-4,.19E-6,0
ONEWEB-0678,2023-068E,2026-06-17T00:11:20.586624,13.15549240,.000171,87.9011,259.2290,102.3372,257.7950,0,U,56714,999,14926,.16553E-3,.75E-6,0
ONEWEB-0679,2023-068F,2026-06-16T20:43:42.943872,13.16595236,.0002554,87.9098,228.8342,90.0898,270.0526,0,U,56715,999,15168,.11481E-3,.57E-6,0
ONEWEB-0680,2023-068G,2026-06-16T15:24:03.318048,13.21827758,.0002638,87.9264,244.0795,97.7173,262.4260,0,U,56716,999,15102,.1737E-3,.85E-6,0
ONEWEB-0681,2023-068H,2026-06-16T22:12:12.755232,13.21827709,.000198,87.9254,244.0241,71.2077,288.9272,0,U,56717,999,15105,.47486E-3,.209E-5,0
ONEWEB-0682,2023-068J,2026-06-16T22:56:03.338016,13.15549185,.0002521,87.9010,259.2400,98.7154,261.4262,0,U,56718,999,14942,-.18291E-4,.6E-7,0
ONEWEB-0683,2023-068K,2026-06-16T23:30:16.754112,13.15549099,.0002284,87.9012,259.2350,102.8582,257.2804,0,U,56719,999,14939,-.28751E-3,-.95E-6,0
ONEWEB-0684,2023-068L,2026-06-16T23:41:40.478784,13.15571854,.0001277,87.9009,259.2234,183.7142,176.3979,0,U,56720,999,14922,-.13253E-1,-.4975E-4,0
ONEWEB-0686,2023-068M,2026-06-16T21:36:09.536832,13.16595353,.0002257,87.9088,228.8503,106.1283,254.0097,0,U,56721,999,15167,.19493E-4,.2E-6,0
ONEWEB-0694,2023-068N,2026-06-16T21:45:16.555104,13.16593938,.000255,87.9108,228.8136,98.6753,261.4667,0,U,56722,999,15173,-.1577E-3,-.47E-6,0
ONEWEB-0696,2023-068P,2026-06-16T22:40:03.643104,13.15546503,.0001511,87.9004,259.2704,102.7215,257.4084,0,U,56723,999,14933,.13785E-3,.65E-6,0
ONEWEB-0703,2023-068Q,2026-06-16T22:53:46.190976,13.15548647,.0001128,87.9003,259.2495,88.8912,271.2348,0,U,56724,999,14922,.77618E-4,.42E-6,0
ONEWEB-0721,2023-068R,2026-06-16T18:16:41.980800,13.22469071,.0001891,86.6766,85.6522,77.7925,282.3420,0,U,56725,999,15788,-.32941E-4,.1E-7,0
ONEWEB-0015,2024-188A,2026-06-17T01:56:00.308832,13.11415820,.0002182,87.8885,21.1142,73.9909,286.1459,0,U,61594,999,8444,-.13843E-2,-.478E-5,0
ONEWEB-0687,2024-188B,2026-06-17T01:53:37.756608,13.17648438,.0002342,87.9127,5.8981,86.8718,273.2682,0,U,61595,999,8588,.21025E-3,.95E-6,0
ONEWEB-0688,2024-188C,2026-06-17T00:45:35.525088,13.17648938,.0002694,87.9128,5.9073,64.3092,295.8318,0,U,61596,999,8587,-.20928E-4,.5E-7,0
ONEWEB-0689,2024-188D,2026-06-17T00:54:58.873824,13.11419361,.0002059,87.8900,21.0807,91.1731,268.9633,0,U,61597,999,8443,.15364E-2,.557E-5,0
ONEWEB-0690,2024-188E,2026-06-17T01:09:38.653920,13.11416330,.000124,87.8895,21.0904,73.8382,286.2882,0,U,61598,999,8461,.17187E-2,.622E-5,0
ONEWEB-0691,2024-188F,2026-06-17T01:02:19.765248,13.11417351,.0002111,87.8905,21.0000,79.5299,280.6066,0,U,61599,999,8446,.16435E-2,.595E-5,0
ONEWEB-0692,2024-188G,2026-06-17T01:31:36.336864,13.11414108,.0001877,87.8883,21.1093,110.9648,249.1681,0,U,61600,999,8445,-.27241E-3,-.84E-6,0
ONEWEB-0693,2024-188H,2026-06-17T01:02:35.865024,13.17648241,.0001297,87.9124,5.9249,66.5651,293.5617,0,U,61601,999,8586,-.12085E-4,.8E-7,0
ONEWEB-0695,2024-188J,2026-06-17T00:57:26.591040,13.11417023,.0002049,87.8884,21.1060,99.1989,260.9371,0,U,61602,999,8444,.16621E-2,.602E-5,0
