ONEWEB-0635             
1 56076U 23043AG  26167.99201338  .00000008  00000+0 -11546-4 0  9992
2 56076  87.9010 259.2305 0001952  93.0240 267.1114 13.15550660156402
ONEWEB-0636             
1 56077U 23043AH  26167.98410784 -.00000053  00000+0 -17510-3 0  9996
2 56077  87.9008 259.2384 0002006  94.8704 265.2656 13.15550062156385
ONEWEB-0637             
1 56078U 23043AJ  26167.97777477 -.00000155  00000+0 -44669-3 0  9999
2 56078  87.9002 259.2562 0002274  96.1913 263.9476 13.15549012156403
ONEWEB-0647             
1 56079U 23043AK  26167.97302473 -.00000100  00000+0 -29940-3 0  9995
2 56079  87.9003 259.2697 0001827  97.9518 262.1820 13.15548541156395
ONEWEB-0651             
1 56080U 23043AL  26168.19643909  .00000028  00000+0  40452-4 0  9993
2 56080  87.9002 259.2187 0002089  94.1427 265.9942 13.15549341157621
ONEWEB-0718             
1 56081U 23043AM  26167.73532544 -.00000058  00000+0 -18784-3 0  9992
2 56081  87.9002 259.2912 0002385 109.6141 250.5246 13.15546397156378
ONEWEB-0561             
1 56710U 23068A   26168.04616654 -.00000005  00000+0 -43306-4 0  9999
2 56710  87.9195 274.4712 0001720  91.3056 268.8274 13.20772767149486
ONEWEB-0668             
1 56711U 23068B   26167.89694414  .00000001  00000+0 -30362-4 0  9995
2 56711  87.9096 228.8300 0002612  99.0975 261.0451 13.16594227151741
ONEWEB-0676             
1 56712U 23068C   26167.90484986  .00000042  00000+0  75985-4 0  9993
2 56712  87.9098 228.8346 0002025  88.7234 271.4128 13.16593353151661
ONEWEB-0677             
1 56713U 23068D   26167.73134421  .00000019  00000+0  14731-4 0  9997
2 56713  87.9195 274.5255 0002258  92.2187 267.9204 13.20770041149749
ONEWEB-0678             
1 56714U 23068E   26168.00787716  .00000075  00000+0  16553-3 0  9995
2 56714  87.9011 259.2290 0001710 102.3372 257.7950 13.15549240149268
ONEWEB-0679             
1 56715U 23068F   26167.86369148  .00000057  00000+0  11481-3 0  9999
2 56715  87.9098 228.8342 0002554  90.0898 270.0526 13.16595236151680
ONEWEB-0680             
1 56716U 23068G   26167.64170507  .00000085  00000+0  17370-3 0  9999
2 56716  87.9264 244.0795 0002638  97.7173 262.4260 13.21827758151022
ONEWEB-0681             
1 56717U 23068H   26167.92514763  .00000209  00000+0  47486-3 0  9996
2 56717  87.9254 244.0241 0001980  71.2077 288.9272 13.21827709151052
ONEWEB-0682             
1 56718U 23068J   26167.95559419  .00000006  00000+0 -18291-4 0  9996
2 56718  87.9010 259.2400 0002521  98.7154 261.4262 13.15549185149425
ONEWEB-0683             
1 56719U 23068K   26167.97936058 -.00000095  00000+0 -28751-3 0  9997
2 56719  87.9012 259.2350 0002284 102.8582 257.2804 13.15549099149395
ONEWEB-0684             
1 56720U 23068L   26167.98727406 -.00004975  00000+0 -13253-1 0  9995
2 56720  87.9009 259.2234 0001277 183.7142 176.3979 13.15571854149225
ONEWEB-0686             
1 56721U 23068M   26167.90011038  .00000020  00000+0  19493-4 0  9995
2 56721  87.9088 228.8503 0002257 106.1283 254.0097 13.16595353151676
ONEWEB-0694             
1 56722U 23068N   26167.90644161 -.00000047  00000+0 -15770-3 0  9999
2 56722  87.9108 228.8136 0002550  98.6753 261.4667 13.16593938151734
ONEWEB-0696             
1 56723U 23068P   26167.94448661  .00000065  00000+0  13785-3 0  9993
2 56723  87.9004 259.2704 0001511 102.7215 257.4084 13.15546503149331
ONEWEB-0703             
1 56724U 23068Q   26167.95400684  .00000042  00000+0  77618-4 0  9999
2 56724  87.9003 259.2495 0001128  88.8912 271.2348 13.15548647149226
ONEWEB-0721             
1 56725U 23068R   26167.76159700  .00000001  00000+0 -32941-4 0  9995
2 56725  86.6766  85.6522 0001891  77.7925 282.3420 13.22469071157885
ONEWEB-0015             
1 61594U 24188A   26168.08055913 -.00000478  00000+0 -13843-2 0  9993
2 61594  87.8885  21.1142 0002182  73.9909 286.1459 13.11415820 84443
ONEWEB-0687             
1 61595U 24188B   26168.07890922  .00000095  00000+0  21025-3 0  9995
2 61595  87.9127   5.8981 0002342  86.8718 273.2682 13.17648438 85886
ONEWEB-0688             
1 61596U 24188C   26168.03166117  .00000005  00000+0 -20928-4 0  9998
2 61596  87.9128   5.9073 0002694  64.3092 295.8318 13.17648938 85877
ONEWEB-0689             
1 61597U 24188D   26168.03818141  .00000557  00000+0  15364-2 0  9997
2 61597  87.8900  21.0807 0002059  91.1731 268.9633 13.11419361 84434
ONEWEB-0690             
1 61598U 24188E   26168.04836405  .00000622  00000+0  17187-2 0  9990
2 61598  87.8895  21.0904 0001240  73.8382 286.2882 13.11416330 84618
ONEWEB-0691             
1 61599U 24188F   26168.04328432  .00000595  00000+0  16435-2 0  9991
2 61599  87.8905  21.0000 0002111  79.5299 280.6066 13.11417351 84465
ONEWEB-0692             
1 61600U 24188G   26168.06361501 -.00000084  00000+0 -27241-3 0  9993
2 61600  87.8883  21.1093 0001877 110.9648 249.1681 13.11414108 84451
ONEWEB-0693             
1 61601U 24188H   26168.04347066  .00000008  00000+0 -12085-4 0  9998
2 61601  87.9124   5.9249 0001297  66.5651 293.5617 13.17648241 85861
ONEWEB-0695             
1 61602U 24188J   26168.03989110  .00000602  00000+0  16621-2 0  9997
2 61602  87.8884  21.1060 0002049  99.1989 260.9371 13.11417023 84441
